KUIPER-00071            
1 64818U 25151C   25205.83335648 -.00006299  00000+0 -16878-3 0  9995
2 64818  51.8779 246.3097 0005525 169.3300  55.7791 15.35516979  1305
KUIPER-00072            
1 64819U 25151D   25205.83335648 -.00006723  00000+0 -18313-3 0  9994
2 64819  51.8768 246.3235 0005178 180.6027  35.2321 15.35144719  1305
KUIPER-00073            
1 64820U 25151E   25205.83335648 -.00006052  00000+0 -16287-3 0  9999
2 64820  51.8782 246.3252 0005626 176.7648  41.4286 15.35302580  2486
KUIPER-00074            
1 64821U 25151F   25205.59834864  .00019585  00000+0  57136-3 0  9998
2 64821  51.8767 247.4478 0005488 175.9237 184.1794 15.35337504  1272
KUIPER-00075            
1 64822U 25151G   25205.53266534  .00013223  00000+0  38922-3 0  9991
2 64822  51.8781 247.7651 0005219 167.5103 192.6013 15.35372932  1267
KUIPER-00076            
1 64823U 25151H   25205.53357725  .00022737  00000+0  66405-3 0  9992
2 64823  51.8769 247.7647 0004908 182.4255 177.6708 15.35207536  1268
KUIPER-00077            
1 64824U 25151J   25205.83335648 -.00005727  00000+0 -15488-3 0  9993
2 64824  51.8782 246.3372 0005863 185.7091  26.3470 15.35032134  1300
KUIPER-00078            
1 64825U 25151K   25205.58335648  .00064318  00000+0  18578-2 0  9997
2 64825  51.8772 247.5385 0005895 185.4701  85.0663 15.35039135  1301
